[{"OBJECT_NAME":"HULIANWANG DIGUI-33","OBJECT_ID":"2025-121D","EPOCH":"2026-03-04T17:42:16.855776","MEAN_MOTION":13.24425319,"ECCENTRICITY":0.0002084,"INCLINATION":86.4966,"RA_OF_ASC_NODE":48.8315,"ARG_OF_PERICENTER":78.2491,"MEAN_ANOMALY":281.8876,"EPHEMERIS_TYPE":0,"CLASSIFICATION_TYPE":"U","NORAD_CAT_ID":64286,"ELEMENT_SET_NO":999,"REV_AT_EPOCH":3633,"BSTAR":6.555e-5,"MEAN_MOTION_DOT":4.3e-7,"MEAN_MOTION_DDOT":0},{"OBJECT_NAME":"HULIANWANG DIGUI-34","OBJECT_ID":"2025-121E","EPOCH":"2026-03-04T19:20:15.807264","MEAN_MOTION":13.2442418,"ECCENTRICITY":0.000223,"INCLINATION":86.4944,"RA_OF_ASC_NODE":48.7405,"ARG_OF_PERICENTER":74.3464,"MEAN_ANOMALY":285.7916,"EPHEMERIS_TYPE":0,"CLASSIFICATION_TYPE":"U","NORAD_CAT_ID":64287,"ELEMENT_SET_NO":999,"REV_AT_EPOCH":3634,"BSTAR":1.198e-5,"MEAN_MOTION_DOT":2.0e-7,"MEAN_MOTION_DDOT":0},{"OBJECT_NAME":"HULIANWANG DIGUI-35","OBJECT_ID":"2025-159A","EPOCH":"2026-03-04T18:31:57.977184","MEAN_MOTION":13.24417097,"ECCENTRICITY":0.0001288,"INCLINATION":86.4986,"RA_OF_ASC_NODE":317.7255,"ARG_OF_PERICENTER":71.5353,"MEAN_ANOMALY":288.5921,"EPHEMERIS_TYPE":0,"CLASSIFICATION_TYPE":"U","NORAD_CAT_ID":64956,"ELEMENT_SET_NO":999,"REV_AT_EPOCH":2930,"BSTAR":7.9011e-5,"MEAN_MOTION_DOT":4.9e-7,"MEAN_MOTION_DDOT":0},{"OBJECT_NAME":"HULIANWANG DIGUI-36","OBJECT_ID":"2025-159B","EPOCH":"2026-03-04T18:20:48.701184","MEAN_MOTION":13.24419742,"ECCENTRICITY":0.0001368,"INCLINATION":86.5006,"RA_OF_ASC_NODE":317.7657,"ARG_OF_PERICENTER":70.6795,"MEAN_ANOMALY":289.4487,"EPHEMERIS_TYPE":0,"CLASSIFICATION_TYPE":"U","NORAD_CAT_ID":64957,"ELEMENT_SET_NO":999,"REV_AT_EPOCH":2930,"BSTAR":8.8256e-5,"MEAN_MOTION_DOT":5.3e-7,"MEAN_MOTION_DDOT":0},{"OBJECT_NAME":"HULIANWANG DIGUI-37","OBJECT_ID":"2025-159C","EPOCH":"2026-03-04T18:09:57.062880","MEAN_MOTION":13.24419318,"ECCENTRICITY":0.0001453,"INCLINATION":86.4947,"RA_OF_ASC_NODE":317.6306,"ARG_OF_PERICENTER":68.3944,"MEAN_ANOMALY":291.7345,"EPHEMERIS_TYPE":0,"CLASSIFICATION_TYPE":"U","NORAD_CAT_ID":64958,"ELEMENT_SET_NO":999,"REV_AT_EPOCH":2930,"BSTAR":6.4963e-5,"MEAN_MOTION_DOT":4.3e-7,"MEAN_MOTION_DDOT":0},{"OBJECT_NAME":"HULIANWANG DIGUI-38","OBJECT_ID":"2025-159D","EPOCH":"2026-03-04T19:47:53.371392","MEAN_MOTION":13.24419497,"ECCENTRICITY":0.0001436,"INCLINATION":86.5006,"RA_OF_ASC_NODE":317.7331,"ARG_OF_PERICENTER":70.3882,"MEAN_ANOMALY":289.7407,"EPHEMERIS_TYPE":0,"CLASSIFICATION_TYPE":"U","NORAD_CAT_ID":64959,"ELEMENT_SET_NO":999,"REV_AT_EPOCH":2931,"BSTAR":8.7977e-5,"MEAN_MOTION_DOT":5.2e-7,"MEAN_MOTION_DDOT":0},{"OBJECT_NAME":"HULIANWANG DIGUI-39","OBJECT_ID":"2025-159E","EPOCH":"2026-03-04T19:36:59.560992","MEAN_MOTION":13.24419652,"ECCENTRICITY":0.0001438,"INCLINATION":86.4982,"RA_OF_ASC_NODE":317.6755,"ARG_OF_PERICENTER":71.8394,"MEAN_ANOMALY":288.2896,"EPHEMERIS_TYPE":0,"CLASSIFICATION_TYPE":"U","NORAD_CAT_ID":64960,"ELEMENT_SET_NO":999,"REV_AT_EPOCH":2931,"BSTAR":0.00012123,"MEAN_MOTION_DOT":6.7e-7,"MEAN_MOTION_DDOT":0},{"OBJECT_NAME":"HULIANWANG DIGUI-40","OBJECT_ID":"2025-162A","EPOCH":"2026-03-04T17:48:39.859200","MEAN_MOTION":13.29332152,"ECCENTRICITY":0.0001023,"INCLINATION":49.999,"RA_OF_ASC_NODE":280.575,"ARG_OF_PERICENTER":72.0902,"MEAN_ANOMALY":288.0082,"EPHEMERIS_TYPE":0,"CLASSIFICATION_TYPE":"U","NORAD_CAT_ID":65043,"ELEMENT_SET_NO":999,"REV_AT_EPOCH":2945,"BSTAR":0.00010782,"MEAN_MOTION_DOT":-7.4e-7,"MEAN_MOTION_DDOT":0},{"OBJECT_NAME":"HULIANWANG DIGUI-41","OBJECT_ID":"2025-162B","EPOCH":"2026-03-04T17:36:38.233440","MEAN_MOTION":13.29332544,"ECCENTRICITY":0.0001065,"INCLINATION":50,"RA_OF_ASC_NODE":280.5488,"ARG_OF_PERICENTER":72.0465,"MEAN_ANOMALY":288.0523,"EPHEMERIS_TYPE":0,"CLASSIFICATION_TYPE":"U","NORAD_CAT_ID":65044,"ELEMENT_SET_NO":999,"REV_AT_EPOCH":2946,"BSTAR":0.00012491,"MEAN_MOTION_DOT":-6.6e-7,"MEAN_MOTION_DDOT":0},{"OBJECT_NAME":"HULIANWANG DIGUI-42","OBJECT_ID":"2025-162C","EPOCH":"2026-03-04T17:24:34.070112","MEAN_MOTION":13.29331951,"ECCENTRICITY":0.0001,"INCLINATION":49.9965,"RA_OF_ASC_NODE":280.4436,"ARG_OF_PERICENTER":73.3692,"MEAN_ANOMALY":286.729,"EPHEMERIS_TYPE":0,"CLASSIFICATION_TYPE":"U","NORAD_CAT_ID":65045,"ELEMENT_SET_NO":999,"REV_AT_EPOCH":2946,"BSTAR":0.00012091,"MEAN_MOTION_DOT":-6.8e-7,"MEAN_MOTION_DDOT":0},{"OBJECT_NAME":"HULIANWANG DIGUI-43","OBJECT_ID":"2025-162D","EPOCH":"2026-03-04T17:12:30.559104","MEAN_MOTION":13.29333006,"ECCENTRICITY":9.95e-5,"INCLINATION":49.9982,"RA_OF_ASC_NODE":280.4318,"ARG_OF_PERICENTER":72.3853,"MEAN_ANOMALY":287.7127,"EPHEMERIS_TYPE":0,"CLASSIFICATION_TYPE":"U","NORAD_CAT_ID":65046,"ELEMENT_SET_NO":999,"REV_AT_EPOCH":2946,"BSTAR":0.00012464,"MEAN_MOTION_DOT":-6.6e-7,"MEAN_MOTION_DDOT":0},{"OBJECT_NAME":"HULIANWANG DIGUI-44","OBJECT_ID":"2025-162E","EPOCH":"2026-03-04T18:48:19.330848","MEAN_MOTION":13.29340602,"ECCENTRICITY":7.75e-5,"INCLINATION":50.0009,"RA_OF_ASC_NODE":280.165,"ARG_OF_PERICENTER":351.5348,"MEAN_ANOMALY":8.551,"EPHEMERIS_TYPE":0,"CLASSIFICATION_TYPE":"U","NORAD_CAT_ID":65047,"ELEMENT_SET_NO":999,"REV_AT_EPOCH":2948,"BSTAR":0.00011957,"MEAN_MOTION_DOT":-6.9e-7,"MEAN_MOTION_DDOT":0},{"OBJECT_NAME":"HULIANWANG DIGUI-45","OBJECT_ID":"2025-162F","EPOCH":"2026-03-04T20:25:00.989760","MEAN_MOTION":13.29332924,"ECCENTRICITY":0.0001048,"INCLINATION":50.0039,"RA_OF_ASC_NODE":279.9072,"ARG_OF_PERICENTER":72.8273,"MEAN_ANOMALY":287.2714,"EPHEMERIS_TYPE":0,"CLASSIFICATION_TYPE":"U","NORAD_CAT_ID":65048,"ELEMENT_SET_NO":999,"REV_AT_EPOCH":2948,"BSTAR":0.0001227,"MEAN_MOTION_DOT":-6.7e-7,"MEAN_MOTION_DDOT":0},{"OBJECT_NAME":"HULIANWANG DIGUI-46","OBJECT_ID":"2025-162G","EPOCH":"2026-03-04T20:12:59.066784","MEAN_MOTION":13.2933285,"ECCENTRICITY":0.0001048,"INCLINATION":50.0057,"RA_OF_ASC_NODE":279.8963,"ARG_OF_PERICENTER":75.1389,"MEAN_ANOMALY":284.9599,"EPHEMERIS_TYPE":0,"CLASSIFICATION_TYPE":"U","NORAD_CAT_ID":65049,"ELEMENT_SET_NO":999,"REV_AT_EPOCH":2948,"BSTAR":0.000119,"MEAN_MOTION_DOT":-6.9e-7,"MEAN_MOTION_DDOT":0},{"OBJECT_NAME":"HULIANWANG DIGUI-47","OBJECT_ID":"2025-162H","EPOCH":"2026-03-04T18:12:41.602176","MEAN_MOTION":13.29332652,"ECCENTRICITY":0.0001029,"INCLINATION":50.0021,"RA_OF_ASC_NODE":280.0606,"ARG_OF_PERICENTER":75.6962,"MEAN_ANOMALY":284.4024,"EPHEMERIS_TYPE":0,"CLASSIFICATION_TYPE":"U","NORAD_CAT_ID":65050,"ELEMENT_SET_NO":999,"REV_AT_EPOCH":2947,"BSTAR":0.00010404,"MEAN_MOTION_DOT":-7.6e-7,"MEAN_MOTION_DDOT":0},{"OBJECT_NAME":"HULIANWANG DIGUI-48","OBJECT_ID":"2025-162J","EPOCH":"2026-03-04T18:00:41.734656","MEAN_MOTION":13.29332169,"ECCENTRICITY":0.0001019,"INCLINATION":50.0031,"RA_OF_ASC_NODE":280.0343,"ARG_OF_PERICENTER":73.951,"MEAN_ANOMALY":286.1474,"EPHEMERIS_TYPE":0,"CLASSIFICATION_TYPE":"U","NORAD_CAT_ID":65051,"ELEMENT_SET_NO":999,"REV_AT_EPOCH":2947,"BSTAR":0.00011748,"MEAN_MOTION_DOT":-7.0e-7,"MEAN_MOTION_DDOT":0}]
