HULIANWANG DIGUI-33     
1 64286U 25121D   26063.73769509  .00000043  00000+0  65550-4 0  9991
2 64286  86.4966  48.8315 0002084  78.2491 281.8876 13.24425319 36330
HULIANWANG DIGUI-34     
1 64287U 25121E   26063.80573851  .00000020  00000+0  11980-4 0  9996
2 64287  86.4944  48.7405 0002230  74.3464 285.7916 13.24424180 36340
HULIANWANG DIGUI-35     
1 64956U 25159A   26063.77219881  .00000049  00000+0  79011-4 0  9996
2 64956  86.4986 317.7255 0001288  71.5353 288.5921 13.24417097 29303
HULIANWANG DIGUI-36     
1 64957U 25159B   26063.76445256  .00000053  00000+0  88256-4 0  9999
2 64957  86.5006 317.7657 0001368  70.6795 289.4487 13.24419742 29309
HULIANWANG DIGUI-37     
1 64958U 25159C   26063.75691045  .00000043  00000+0  64963-4 0  9996
2 64958  86.4947 317.6306 0001453  68.3944 291.7345 13.24419318 29306
HULIANWANG DIGUI-38     
1 64959U 25159D   26063.82492328  .00000052  00000+0  87977-4 0  9998
2 64959  86.5006 317.7331 0001436  70.3882 289.7407 13.24419497 29313
HULIANWANG DIGUI-39     
1 64960U 25159E   26063.81735603  .00000067  00000+0  12123-3 0  9991
2 64960  86.4982 317.6755 0001438  71.8394 288.2896 13.24419652 29311
HULIANWANG DIGUI-40     
1 65043U 25162A   26063.74212800 -.00000074  00000+0  10782-3 0  9997
2 65043  49.9990 280.5750 0001023  72.0902 288.0082 13.29332152 29452
HULIANWANG DIGUI-41     
1 65044U 25162B   26063.73377585 -.00000066  00000+0  12491-3 0  9999
2 65044  50.0000 280.5488 0001065  72.0465 288.0523 13.29332544 29462
HULIANWANG DIGUI-42     
1 65045U 25162C   26063.72539433 -.00000068  00000+0  12091-3 0  9999
2 65045  49.9965 280.4436 0001000  73.3692 286.7290 13.29331951 29464
HULIANWANG DIGUI-43     
1 65046U 25162D   26063.71702036 -.00000066  00000+0  12464-3 0  9992
2 65046  49.9982 280.4318 0000995  72.3853 287.7127 13.29333006 29466
HULIANWANG DIGUI-44     
1 65047U 25162E   26063.78355707 -.00000069  00000+0  11957-3 0  9998
2 65047  50.0009 280.1650 0000775 351.5348   8.5510 13.29340602 29480
HULIANWANG DIGUI-45     
1 65048U 25162F   26063.85070590 -.00000067  00000+0  12270-3 0  9998
2 65048  50.0039 279.9072 0001048  72.8273 287.2714 13.29332924 29482
HULIANWANG DIGUI-46     
1 65049U 25162G   26063.84235031 -.00000069  00000+0  11900-3 0  9992
2 65049  50.0057 279.8963 0001048  75.1389 284.9599 13.29332850 29488
HULIANWANG DIGUI-47     
1 65050U 25162H   26063.75881484 -.00000076  00000+0  10404-3 0  9999
2 65050  50.0021 280.0606 0001029  75.6962 284.4024 13.29332652 29477
HULIANWANG DIGUI-48     
1 65051U 25162J   26063.75048304 -.00000070  00000+0  11748-3 0  9992
2 65051  50.0031 280.0343 0001019  73.9510 286.1474 13.29332169 29477
